[{"OBJECT_NAME":"STARLINK-3566","OBJECT_ID":"2022-022AE","EPOCH":"2026-03-09T06:31:53.223456","MEAN_MOTION":15.08840019,"ECCENTRICITY":0.00012496,"INCLINATION":53.2183,"RA_OF_ASC_NODE":10.7124,"ARG_OF_PERICENTER":87.2489,"MEAN_ANOMALY":272.8646,"EPHEMERIS_TYPE":0,"CLASSIFICATION_TYPE":"U","NORAD_CAT_ID":51880,"ELEMENT_SET_NO":999,"REV_AT_EPOCH":22305,"BSTAR":8.4231109e-5,"MEAN_MOTION_DOT":1.053e-5,"MEAN_MOTION_DDOT":0},{"OBJECT_NAME":"OBJECT B","OBJECT_ID":"2025-226B","EPOCH":"2026-03-09T23:02:31.139232","MEAN_MOTION":15.09715314,"ECCENTRICITY":0.00204156,"INCLINATION":97.6443,"RA_OF_ASC_NODE":147.8366,"ARG_OF_PERICENTER":114.3969,"MEAN_ANOMALY":245.9393,"EPHEMERIS_TYPE":0,"CLASSIFICATION_TYPE":"U","NORAD_CAT_ID":65939,"ELEMENT_SET_NO":999,"REV_AT_EPOCH":2260,"BSTAR":0.00038297064,"MEAN_MOTION_DOT":6.14e-5,"MEAN_MOTION_DDOT":0}]
